{
  "type": "FeatureCollection",
  "features": [
    {
      "type": "Feature",
      "properties": {
        "norad_id": 28054,
        "name": "DMSP 5D-3 F16 (USA 172)",
        "group": "weather",
        "lat": 51.6597479592534,
        "lon": 1.57357629430609,
        "alt_km": 841.6802020919204,
        "timestamp": "2025-12-21T14:40:47.552830+00:00",
        "meta_object_name": "DMSP 5D-3 F16 (USA 172)",
        "meta_object_id": "2003-048A",
        "meta_epoch": "2025-12-21T06:45:39.999744",
        "meta_mean_motion": 14.14427053,
        "meta_eccentricity": 0.00062806,
        "meta_inclination": 99.0038,
        "meta_ra_of_asc_node": 12.8057,
        "meta_arg_of_pericenter": 293.6384,
        "meta_mean_anomaly": 239.7948,
        "meta_ephemeris_type": 0,
        "meta_classification_type": "U",
        "meta_norad_cat_id": 28054,
        "meta_element_set_no": 999,
        "meta_rev_at_epoch": 14433,
        "meta_bstar": 7.1148517e-05,
        "meta_mean_motion_dot": 9.1e-07,
        "meta_mean_motion_ddot": 0,
        "tle_line1": "1 28054U 03048A   25355.28171296  .00000091  00000+0  71149-4 0  9995",
        "tle_line2": "2 28054  99.0038  12.8057 0006280 293.6384 239.7948 14.14427053144332"
      },
      "geometry": {
        "type": "Point",
        "coordinates": [
          1.57357629430609,
          51.6597479592534
        ]
      }
    },
    {
      "type": "Feature",
      "properties": {
        "norad_id": 28912,
        "name": "METEOSAT-9 (MSG-2)",
        "group": "weather",
        "lat": -7.780405069371003,
        "lon": -4.233501976845726,
        "alt_km": 35369.27538157839,
        "timestamp": "2025-12-21T14:40:47.552880+00:00",
        "meta_object_name": "METEOSAT-9 (MSG-2)",
        "meta_object_id": "2005-049B",
        "meta_epoch": "2025-12-20T18:34:58.766592",
        "meta_mean_motion": 1.00265537,
        "meta_eccentricity": 0.01042854,
        "meta_inclination": 8.9429,
        "meta_ra_of_asc_node": 55.8777,
        "meta_arg_of_pericenter": 282.8799,
        "meta_mean_anomaly": 74.1046,
        "meta_ephemeris_type": 0,
        "meta_classification_type": "U",
        "meta_norad_cat_id": 28912,
        "meta_element_set_no": 999,
        "meta_rev_at_epoch": 520,
        "meta_bstar": 0,
        "meta_mean_motion_dot": 1.08e-06,
        "meta_mean_motion_ddot": 0,
        "tle_line1": "1 28912U 05049B   25354.77429128  .00000108  00000+0  00000+0 0  9996",
        "tle_line2": "2 28912   8.9429  55.8777 0104285 282.8799  74.1046  1.00265537  5208"
      },
      "geometry": {
        "type": "Point",
        "coordinates": [
          -4.233501976845726,
          -7.780405069371003
        ]
      }
    },
    {
      "type": "Feature",
      "properties": {
        "norad_id": 29522,
        "name": "DMSP 5D-3 F17 (USA 191)",
        "group": "weather",
        "lat": 8.37238396459504,
        "lon": -0.48113885076460955,
        "alt_km": 851.2750054340304,
        "timestamp": "2025-12-21T14:40:47.552898+00:00",
        "meta_object_name": "DMSP 5D-3 F17 (USA 191)",
        "meta_object_id": "2006-050A",
        "meta_epoch": "2025-12-21T06:09:14.715648",
        "meta_mean_motion": 14.14923185,
        "meta_eccentricity": 0.00097606,
        "meta_inclination": 98.739,
        "meta_ra_of_asc_node": 0.4682,
        "meta_arg_of_pericenter": 199.2316,
        "meta_mean_anomaly": 160.849,
        "meta_ephemeris_type": 0,
        "meta_classification_type": "U",
        "meta_norad_cat_id": 29522,
        "meta_element_set_no": 999,
        "meta_rev_at_epoch": 98725,
        "meta_bstar": 9.0542162e-05,
        "meta_mean_motion_dot": 1.32e-06,
        "meta_mean_motion_ddot": 0,
        "tle_line1": "1 29522U 06050A   25355.25642032  .00000132  00000+0  90542-4 0  9994",
        "tle_line2": "2 29522  98.7390   0.4682 0009760 199.2316 160.8490 14.14923185987258"
      },
      "geometry": {
        "type": "Point",
        "coordinates": [
          -0.48113885076460955,
          8.37238396459504
        ]
      }
    },
    {
      "type": "Feature",
      "properties": {
        "norad_id": 32958,
        "name": "FENGYUN 3A",
        "group": "weather",
        "lat": -48.343286142718,
        "lon": 105.07488122255529,
        "alt_km": 830.4612803214641,
        "timestamp": "2025-12-21T14:40:47.552912+00:00",
        "meta_object_name": "FENGYUN 3A",
        "meta_object_id": "2008-026A",
        "meta_epoch": "2025-12-21T06:50:12.752448",
        "meta_mean_motion": 14.19517069,
        "meta_eccentricity": 0.00076551,
        "meta_inclination": 98.6709,
        "meta_ra_of_asc_node": 294.632,
        "meta_arg_of_pericenter": 282.8798,
        "meta_mean_anomaly": 77.1523,
        "meta_ephemeris_type": 0,
        "meta_classification_type": "U",
        "meta_norad_cat_id": 32958,
        "meta_element_set_no": 999,
        "meta_rev_at_epoch": 91016,
        "meta_bstar": 5.6974136e-05,
        "meta_mean_motion_dot": 7.7e-07,
        "meta_mean_motion_ddot": 0,
        "tle_line1": "1 32958U 08026A   25355.28486982  .00000077  00000+0  56974-4 0  9998",
        "tle_line2": "2 32958  98.6709 294.6320 0007655 282.8798  77.1523 14.19517069910166"
      },
      "geometry": {
        "type": "Point",
        "coordinates": [
          105.07488122255529,
          -48.343286142718
        ]
      }
    },
    {
      "type": "Feature",
      "properties": {
        "norad_id": 35491,
        "name": "GOES 14",
        "group": "weather",
        "lat": 1.1464305431099653,
        "lon": -164.73195238804834,
        "alt_km": 35834.42224454926,
        "timestamp": "2025-12-21T14:40:47.552933+00:00",
        "meta_object_name": "GOES 14",
        "meta_object_id": "2009-033A",
        "meta_epoch": "2025-12-21T05:48:11.867328",
        "meta_mean_motion": 1.00096931,
        "meta_eccentricity": 5.232e-05,
        "meta_inclination": 1.2245,
        "meta_ra_of_asc_node": 85.3195,
        "meta_arg_of_pericenter": 184.5201,
        "meta_mean_anomaly": 152.1556,
        "meta_ephemeris_type": 0,
        "meta_classification_type": "U",
        "meta_norad_cat_id": 35491,
        "meta_element_set_no": 999,
        "meta_rev_at_epoch": 480,
        "meta_bstar": 0,
        "meta_mean_motion_dot": 2.3e-07,
        "meta_mean_motion_ddot": 0,
        "tle_line1": "1 35491U 09033A   25355.24180402  .00000023  00000+0  00000+0 0  9991",
        "tle_line2": "2 35491   1.2245  85.3195 0000523 184.5201 152.1556  1.00096931  4806"
      },
      "geometry": {
        "type": "Point",
        "coordinates": [
          -164.73195238804834,
          1.1464305431099653
        ]
      }
    },
    {
      "type": "Feature",
      "properties": {
        "norad_id": 35951,
        "name": "DMSP 5D-3 F18 (USA 210)",
        "group": "weather",
        "lat": -50.50664170873146,
        "lon": 141.02787237379854,
        "alt_km": 858.3104075989486,
        "timestamp": "2025-12-21T14:40:47.552946+00:00",
        "meta_object_name": "DMSP 5D-3 F18 (USA 210)",
        "meta_object_id": "2009-057A",
        "meta_epoch": "2025-12-21T05:06:13.019616",
        "meta_mean_motion": 14.1477454,
        "meta_eccentricity": 0.0011844,
        "meta_inclination": 98.8843,
        "meta_ra_of_asc_node": 331.5714,
        "meta_arg_of_pericenter": 40.4388,
        "meta_mean_anomaly": 319.7663,
        "meta_ephemeris_type": 0,
        "meta_classification_type": "U",
        "meta_norad_cat_id": 35951,
        "meta_element_set_no": 999,
        "meta_rev_at_epoch": 83442,
        "meta_bstar": 0.00014810003,
        "meta_mean_motion_dot": 2.41e-06,
        "meta_mean_motion_ddot": 0,
        "tle_line1": "1 35951U 09057A   25355.21265069  .00000241  00000+0  14810-3 0  9998",
        "tle_line2": "2 35951  98.8843 331.5714 0011844  40.4388 319.7663 14.14774540834427"
      },
      "geometry": {
        "type": "Point",
        "coordinates": [
          141.02787237379854,
          -50.50664170873146
        ]
      }
    },
    {
      "type": "Feature",
      "properties": {
        "norad_id": 36411,
        "name": "EWS-G2 (GOES 15)",
        "group": "weather",
        "lat": -0.7976416986382339,
        "lon": 12.04248383377497,
        "alt_km": 35793.61944666946,
        "timestamp": "2025-12-21T14:40:47.552959+00:00",
        "meta_object_name": "EWS-G2 (GOES 15)",
        "meta_object_id": "2010-008A",
        "meta_epoch": "2025-12-21T04:55:49.163232",
        "meta_mean_motion": 1.00270904,
        "meta_eccentricity": 0.00054599,
        "meta_inclination": 0.8333,
        "meta_ra_of_asc_node": 86.0841,
        "meta_arg_of_pericenter": 177.6841,
        "meta_mean_anomaly": 321.5773,
        "meta_ephemeris_type": 0,
        "meta_classification_type": "U",
        "meta_norad_cat_id": 36411,
        "meta_element_set_no": 999,
        "meta_rev_at_epoch": 5785,
        "meta_bstar": 0,
        "meta_mean_motion_dot": 6.1e-07,
        "meta_mean_motion_ddot": 0,
        "tle_line1": "1 36411U 10008A   25355.20543013  .00000061  00000+0  00000+0 0  9997",
        "tle_line2": "2 36411   0.8333  86.0841 0005459 177.6841 321.5773  1.00270904 57854"
      },
      "geometry": {
        "type": "Point",
        "coordinates": [
          12.04248383377497,
          -0.7976416986382339
        ]
      }
    }
  ]
}